[{"OBJECT_NAME":"ONEWEB-0505","OBJECT_ID":"2022-138L","EPOCH":"2026-04-15T01:05:33.501696","MEAN_MOTION":13.19725558,"ECCENTRICITY":0.0002223,"INCLINATION":87.9178,"RA_OF_ASC_NODE":317.5539,"ARG_OF_PERICENTER":86.8953,"MEAN_ANOMALY":273.2435,"EPHEMERIS_TYPE":0,"CLASSIFICATION_TYPE":"U","NORAD_CAT_ID":54123,"ELEMENT_SET_NO":999,"REV_AT_EPOCH":16848,"BSTAR":-3.6763e-05,"MEAN_MOTION_DOT":-2e-08,"MEAN_MOTION_DDOT":0.0},{"OBJECT_NAME":"ONEWEB-0506","OBJECT_ID":"2022-138M","EPOCH":"2026-04-15T02:18:19.678176","MEAN_MOTION":13.19726581,"ECCENTRICITY":0.0002081,"INCLINATION":87.9177,"RA_OF_ASC_NODE":317.5409,"ARG_OF_PERICENTER":86.4759,"MEAN_ANOMALY":273.6612,"EPHEMERIS_TYPE":0,"CLASSIFICATION_TYPE":"U","NORAD_CAT_ID":54124,"ELEMENT_SET_NO":999,"REV_AT_EPOCH":16848,"BSTAR":-0.00015745,"MEAN_MOTION_DOT":-5e-07,"MEAN_MOTION_DDOT":0.0},{"OBJECT_NAME":"ONEWEB-0507","OBJECT_ID":"2022-138N","EPOCH":"2026-04-15T00:58:43.849056","MEAN_MOTION":13.1972671,"ECCENTRICITY":0.0001961,"INCLINATION":87.9164,"RA_OF_ASC_NODE":317.57,"ARG_OF_PERICENTER":83.6471,"MEAN_ANOMALY":276.4885,"EPHEMERIS_TYPE":0,"CLASSIFICATION_TYPE":"U","NORAD_CAT_ID":54125,"ELEMENT_SET_NO":999,"REV_AT_EPOCH":16852,"BSTAR":4.7821e-05,"MEAN_MOTION_DOT":3.2e-07,"MEAN_MOTION_DDOT":0.0},{"OBJECT_NAME":"ONEWEB-0508","OBJECT_ID":"2022-138P","EPOCH":"2026-04-15T00:54:11.273472","MEAN_MOTION":13.19724035,"ECCENTRICITY":0.0002105,"INCLINATION":87.9164,"RA_OF_ASC_NODE":317.5699,"ARG_OF_PERICENTER":78.7921,"MEAN_ANOMALY":281.3448,"EPHEMERIS_TYPE":0,"CLASSIFICATION_TYPE":"U","NORAD_CAT_ID":54126,"ELEMENT_SET_NO":999,"REV_AT_EPOCH":16850,"BSTAR":0.00037488,"MEAN_MOTION_DOT":1.63e-06,"MEAN_MOTION_DDOT":0.0},{"OBJECT_NAME":"ONEWEB-0509","OBJECT_ID":"2022-138Q","EPOCH":"2026-04-15T02:06:58.100544","MEAN_MOTION":13.19723585,"ECCENTRICITY":0.0001877,"INCLINATION":87.918,"RA_OF_ASC_NODE":317.5428,"ARG_OF_PERICENTER":84.9771,"MEAN_ANOMALY":275.1576,"EPHEMERIS_TYPE":0,"CLASSIFICATION_TYPE":"U","NORAD_CAT_ID":54127,"ELEMENT_SET_NO":999,"REV_AT_EPOCH":16848,"BSTAR":0.00024938,"MEAN_MOTION_DOT":1.13e-06,"MEAN_MOTION_DDOT":0.0},{"OBJECT_NAME":"ONEWEB-0510","OBJECT_ID":"2022-138R","EPOCH":"2026-04-15T06:04:48.290016","MEAN_MOTION":13.20773645,"ECCENTRICITY":0.0001343,"INCLINATION":87.9135,"RA_OF_ASC_NODE":286.998,"ARG_OF_PERICENTER":100.2791,"MEAN_ANOMALY":259.8493,"EPHEMERIS_TYPE":0,"CLASSIFICATION_TYPE":"U","NORAD_CAT_ID":54128,"ELEMENT_SET_NO":999,"REV_AT_EPOCH":17097,"BSTAR":-8.0486e-05,"MEAN_MOTION_DOT":-2e-07,"MEAN_MOTION_DDOT":0.0},{"OBJECT_NAME":"ONEWEB-0511","OBJECT_ID":"2022-138S","EPOCH":"2026-04-15T02:02:26.102112","MEAN_MOTION":13.19726106,"ECCENTRICITY":0.0001924,"INCLINATION":87.918,"RA_OF_ASC_NODE":317.5477,"ARG_OF_PERICENTER":94.9173,"MEAN_ANOMALY":265.2179,"EPHEMERIS_TYPE":0,"CLASSIFICATION_TYPE":"U","NORAD_CAT_ID":54129,"ELEMENT_SET_NO":999,"REV_AT_EPOCH":16851,"BSTAR":0.00025550000000000003,"MEAN_MOTION_DOT":1.15e-06,"MEAN_MOTION_DDOT":0.0},{"OBJECT_NAME":"ONEWEB-0512","OBJECT_ID":"2022-138T","EPOCH":"2026-04-15T00:01:53.270400","MEAN_MOTION":13.19724793,"ECCENTRICITY":0.0002087,"INCLINATION":87.9167,"RA_OF_ASC_NODE":317.5745,"ARG_OF_PERICENTER":88.8627,"MEAN_ANOMALY":271.2745,"EPHEMERIS_TYPE":0,"CLASSIFICATION_TYPE":"U","NORAD_CAT_ID":54130,"ELEMENT_SET_NO":999,"REV_AT_EPOCH":16847,"BSTAR":0.00024888,"MEAN_MOTION_DOT":1.13e-06,"MEAN_MOTION_DDOT":0.0},{"OBJECT_NAME":"ONEWEB-0513","OBJECT_ID":"2022-138U","EPOCH":"2026-04-15T00:47:15.549504","MEAN_MOTION":13.20264849,"ECCENTRICITY":0.0002612,"INCLINATION":87.9174,"RA_OF_ASC_NODE":317.5201,"ARG_OF_PERICENTER":97.3215,"MEAN_ANOMALY":262.8215,"EPHEMERIS_TYPE":0,"CLASSIFICATION_TYPE":"U","NORAD_CAT_ID":54131,"ELEMENT_SET_NO":999,"REV_AT_EPOCH":16838,"BSTAR":9.9185e-05,"MEAN_MOTION_DOT":5.3e-07,"MEAN_MOTION_DDOT":0.0},{"OBJECT_NAME":"ONEWEB-0514","OBJECT_ID":"2022-138V","EPOCH":"2026-04-15T02:13:46.637760","MEAN_MOTION":13.19726639,"ECCENTRICITY":0.0001597,"INCLINATION":87.9165,"RA_OF_ASC_NODE":317.5454,"ARG_OF_PERICENTER":87.7635,"MEAN_ANOMALY":272.368,"EPHEMERIS_TYPE":0,"CLASSIFICATION_TYPE":"U","NORAD_CAT_ID":54132,"ELEMENT_SET_NO":999,"REV_AT_EPOCH":16850,"BSTAR":-9.0343e-05,"MEAN_MOTION_DOT":-2.3e-07,"MEAN_MOTION_DDOT":0.0},{"OBJECT_NAME":"ONEWEB-0515","OBJECT_ID":"2022-138W","EPOCH":"2026-04-15T05:46:38.660736","MEAN_MOTION":13.20772538,"ECCENTRICITY":0.0001139,"INCLINATION":87.9146,"RA_OF_ASC_NODE":286.9916,"ARG_OF_PERICENTER":68.467,"MEAN_ANOMALY":291.6585,"EPHEMERIS_TYPE":0,"CLASSIFICATION_TYPE":"U","NORAD_CAT_ID":54133,"ELEMENT_SET_NO":999,"REV_AT_EPOCH":17099,"BSTAR":0.00011122,"MEAN_MOTION_DOT":5.8e-07,"MEAN_MOTION_DDOT":0.0},{"OBJECT_NAME":"ONEWEB-0516","OBJECT_ID":"2022-138X","EPOCH":"2026-04-15T03:26:35.401056","MEAN_MOTION":13.197273,"ECCENTRICITY":0.0001817,"INCLINATION":87.9166,"RA_OF_ASC_NODE":317.5468,"ARG_OF_PERICENTER":82.2768,"MEAN_ANOMALY":277.8571,"EPHEMERIS_TYPE":0,"CLASSIFICATION_TYPE":"U","NORAD_CAT_ID":54134,"ELEMENT_SET_NO":999,"REV_AT_EPOCH":16851,"BSTAR":0.00016984,"MEAN_MOTION_DOT":8.1e-07,"MEAN_MOTION_DDOT":0.0},{"OBJECT_NAME":"ONEWEB-0517","OBJECT_ID":"2022-138Y","EPOCH":"2026-04-15T06:35:21.024096","MEAN_MOTION":13.19727353,"ECCENTRICITY":0.0001713,"INCLINATION":87.9167,"RA_OF_ASC_NODE":317.5103,"ARG_OF_PERICENTER":96.2006,"MEAN_ANOMALY":263.9322,"EPHEMERIS_TYPE":0,"CLASSIFICATION_TYPE":"U","NORAD_CAT_ID":54135,"ELEMENT_SET_NO":999,"REV_AT_EPOCH":16853,"BSTAR":-5.843000000000001e-05,"MEAN_MOTION_DOT":-1e-07,"MEAN_MOTION_DDOT":0.0},{"OBJECT_NAME":"ONEWEB-0518","OBJECT_ID":"2022-138Z","EPOCH":"2026-04-15T07:02:40.938432","MEAN_MOTION":13.19726023,"ECCENTRICITY":0.0001917,"INCLINATION":87.9164,"RA_OF_ASC_NODE":317.5186,"ARG_OF_PERICENTER":81.5299,"MEAN_ANOMALY":278.6051,"EPHEMERIS_TYPE":0,"CLASSIFICATION_TYPE":"U","NORAD_CAT_ID":54136,"ELEMENT_SET_NO":999,"REV_AT_EPOCH":16853,"BSTAR":0.00099376,"MEAN_MOTION_DOT":4.11e-06,"MEAN_MOTION_DDOT":0.0},{"OBJECT_NAME":"ONEWEB-0519","OBJECT_ID":"2022-138AA","EPOCH":"2026-04-15T02:11:30.826464","MEAN_MOTION":13.19723836,"ECCENTRICITY":0.0001761,"INCLINATION":87.9177,"RA_OF_ASC_NODE":317.5424,"ARG_OF_PERICENTER":93.3068,"MEAN_ANOMALY":266.8266,"EPHEMERIS_TYPE":0,"CLASSIFICATION_TYPE":"U","NORAD_CAT_ID":54137,"ELEMENT_SET_NO":999,"REV_AT_EPOCH":16851,"BSTAR":0.00046379,"MEAN_MOTION_DOT":1.99e-06,"MEAN_MOTION_DDOT":0.0},{"OBJECT_NAME":"ONEWEB-0520","OBJECT_ID":"2022-138AB","EPOCH":"2026-04-14T19:44:50.779680","MEAN_MOTION":13.19723723,"ECCENTRICITY":0.0002054,"INCLINATION":87.9168,"RA_OF_ASC_NODE":317.5994,"ARG_OF_PERICENTER":84.2771,"MEAN_ANOMALY":275.8596,"EPHEMERIS_TYPE":0,"CLASSIFICATION_TYPE":"U","NORAD_CAT_ID":54138,"ELEMENT_SET_NO":999,"REV_AT_EPOCH":16846,"BSTAR":0.00019145999999999999,"MEAN_MOTION_DOT":9e-07,"MEAN_MOTION_DDOT":0.0}]