ONEWEB-0505             
1 54123U 22138L   26105.04552664 -.00000002  00000+0 -36763-4 0  9999
2 54123  87.9178 317.5539 0002223  86.8953 273.2435 13.19725558168487
ONEWEB-0506             
1 54124U 22138M   26105.09606109 -.00000050  00000+0 -15745-3 0  9998
2 54124  87.9177 317.5409 0002081  86.4759 273.6612 13.19726581168483
ONEWEB-0507             
1 54125U 22138N   26105.04078529  .00000032  00000+0  47821-4 0  9992
2 54125  87.9164 317.5700 0001961  83.6471 276.4885 13.19726710168522
ONEWEB-0508             
1 54126U 22138P   26105.03763048  .00000163  00000+0  37488-3 0  9991
2 54126  87.9164 317.5699 0002105  78.7921 281.3448 13.19724035168502
ONEWEB-0509             
1 54127U 22138Q   26105.08817246  .00000113  00000+0  24938-3 0  9998
2 54127  87.9180 317.5428 0001877  84.9771 275.1576 13.19723585168487
ONEWEB-0510             
1 54128U 22138R   26105.25333669 -.00000020  00000+0 -80486-4 0  9990
2 54128  87.9135 286.9980 0001343 100.2791 259.8493 13.20773645170970
ONEWEB-0511             
1 54129U 22138S   26105.08502433  .00000115  00000+0  25550-3 0  9992
2 54129  87.9180 317.5477 0001924  94.9173 265.2179 13.19726106168518
ONEWEB-0512             
1 54130U 22138T   26105.00131100  .00000113  00000+0  24888-3 0  9996
2 54130  87.9167 317.5745 0002087  88.8627 271.2745 13.19724793168471
ONEWEB-0513             
1 54131U 22138U   26105.03281886  .00000053  00000+0  99185-4 0  9993
2 54131  87.9174 317.5201 0002612  97.3215 262.8215 13.20264849168380
ONEWEB-0514             
1 54132U 22138V   26105.09290090 -.00000023  00000+0 -90343-4 0  9993
2 54132  87.9165 317.5454 0001597  87.7635 272.3680 13.19726639168505
ONEWEB-0515             
1 54133U 22138W   26105.24072524  .00000058  00000+0  11122-3 0  9994
2 54133  87.9146 286.9916 0001139  68.4670 291.6585 13.20772538170999
ONEWEB-0516             
1 54134U 22138X   26105.14346529  .00000081  00000+0  16984-3 0  9990
2 54134  87.9166 317.5468 0001817  82.2768 277.8571 13.19727300168511
ONEWEB-0517             
1 54135U 22138Y   26105.27454889 -.00000010  00000+0 -58430-4 0  9991
2 54135  87.9167 317.5103 0001713  96.2006 263.9322 13.19727353168534
ONEWEB-0518             
1 54136U 22138Z   26105.29352938  .00000411  00000+0  99376-3 0  9992
2 54136  87.9164 317.5186 0001917  81.5299 278.6051 13.19726023168535
ONEWEB-0519             
1 54137U 22138AA  26105.09132901  .00000199  00000+0  46379-3 0  9995
2 54137  87.9177 317.5424 0001761  93.3068 266.8266 13.19723836168511
ONEWEB-0520             
1 54138U 22138AB  26104.82280995  .00000090  00000+0  19146-3 0  9995
2 54138  87.9168 317.5994 0002054  84.2771 275.8596 13.19723723168465
